HST                     
1 20580U 90037B   26197.41290602  .00003155  00000+0  94703-4 0  9993
2 20580  28.4721 240.7781 0002205 116.1577 243.9246 15.31067854793051
POLAR                   
1 23802U 96013A   26196.53578427  .00000188  00000+0  00000+0 0  9994
2 23802  79.8926 226.7156 6498828 208.1023  91.7323  1.29846063145237
SWAS                    
1 25560U 98071A   26197.36778753  .00001519  00000+0  10041-3 0  9998
2 25560  69.8942 152.2592 0007841 229.3464 130.7020 15.09751079501670
CXO                     
1 25867U 99040B   26198.46886808  .00000598  00000+0  00000+0 0  9994
2 25867  56.6226 115.7943 7787022 310.0504   0.5333  0.37805709 17431
XMM-NEWTON              
1 25989U 99066A   26199.26509818 -.00000005  00000+0  00000+0 0  9993
2 25989  64.3180 282.5861 4665036  64.3602 359.9798  0.50127855 23154
TERRA                   
1 25994U 99068A   26197.62064881  .00000168  00000+0  43069-4 0  9991
2 25994  97.9441 245.9975 0003471 119.7743  41.0394 14.61124329413904
CLUSTER II-FM7 (SAMBA)  
1 26410U 00041A   26197.13957185  .00051232 -58450-4  00000+0 0  9991
2 26410 149.8273  56.2567 9088690 273.7641 359.2168  0.44844033 20444
CLUSTER II-FM8 (TANGO)  
1 26464U 00045B   26195.45112018  .00019821  00000+0  00000+0 0  9995
2 26464 150.0407  57.1141 9091460 274.4512   1.9889  0.44421596 20433
ODIN                    
1 26702U 01007A   26197.56502999  .00296064  34282-4  98319-3 0  9998
2 26702  97.3710 240.6688 0005161 154.3355 205.8176 15.90277819394047
TIMED                   
1 26998U 01055B   26197.37890834  .00000530  00000+0  51686-4 0  9999
2 26998  74.0666 176.2385 0002266 299.5266  60.5692 14.95345803335182
CORIOLIS                
1 27640U 03001A   26197.44010680  .00000032  00000+0  35452-4 0  9998
2 27640  98.7135 203.8789 0014958 125.7828 234.4741 14.19952056218379
SORCE                   
1 27651U 03004A   26197.16097906  .00001256  00000+0  10030-3 0  9991
2 27651  39.9912  96.3508 0018752 260.9302  98.9370 15.03844345276268
MOST                    
1 27843U 03031D   26197.49629194  .00000009  00000+0  24312-4 0  9994
2 27843  98.7053 204.8138 0010169 161.4054 198.7497 14.21327872194873
SCISAT 1                
1 27858U 03036A   26197.19553693  .00000256  00000+0  37370-4 0  9994
2 27858  73.9301 113.7073 0007319 181.5592 178.5563 14.81479508235741
SWIFT                   
1 28485U 04047A   26197.60848711  .00041559  00000+0  30413-3 0  9999
2 28485  20.5526 317.4567 0002327  39.5512 320.5104 15.71279814191495
HINODE (SOLAR-B)        
1 29479U 06041A   26197.00481165  .00000279  00000+0  56318-4 0  9996
2 29479  98.0548 212.7325 0017092 191.8472 168.2333 14.68658799 59104
SHIJIAN-6 02A (SJ-6 02A)
1 29505U 06046A   26197.57421877  .00004955  00000+0  25238-3 0  9998
2 29505  97.6344 238.8648 0004259  61.2070 298.9591 15.17258496 76724
SHIJIAN-6 02B (SJ-6 02B)
1 29506U 06046B   26197.60369036  .00000655  00000+0  55367-4 0  9991
2 29506  97.7140 226.4799 0013255 331.4573  28.5924 15.01439880 75150
FGRST (GLAST)           
1 33053U 08029A   26197.56153089  .00001925  00000+0  63581-4 0  9998
2 33053  25.5830   0.4993 0007823 316.1097  43.8819 15.24081177   178
SDO                     
1 36395U 10005A   26196.34409457 -.00000103  00000+0  00000+0 0  9995
2 36395  34.7081  85.9138 0001835  46.0485 182.8654  1.00277108 60342
CRYOSAT 2               
1 36508U 10013A   26197.57934844  .00000111  00000+0  26808-4 0  9996
2 36508  92.0359 284.4471 0002412  98.7271 261.4209 14.51898691862344
X-SAT                   
1 37389U 11015C   26197.57128988 -.00000164  00000+0 -52137-4 0  9995
2 37389  98.3525 173.1980 0012705 256.5694 103.4070 14.25213151791866
GCOM-W1 (SHIZUKU)       
1 38337U 12025A   26197.58187396  .00000192  00000+0  52654-4 0  9993
2 38337  98.2023 137.6930 0001296  78.1299  95.1125 14.57090811753311
NUSTAR                  
1 38358U 12031A   26197.66670139  .00002796  00000+0  11882-3 0  9993
2 38358   6.0260 172.9645 0008277 198.1513 266.1950 15.09052445  1307
NEOSSAT                 
1 39089U 13009D   26197.47776878  .00000043  00000+0  29721-4 0  9992
2 39089  98.4191  16.8158 0011517 153.5788 206.5988 14.35835927700949
BRITE-AUSTRIA           
1 39091U 13009F   26197.46180923  .00000066  00000+0  37060-4 0  9994
2 39091  98.4009  16.1751 0010831 147.0880 213.0983 14.36552802701253
IRIS                    
1 39197U 13033A   26197.45772279  .00000498  00000+0  63266-4 0  9994
2 39197  97.9319  36.6425 0023410 220.6584 139.2884 14.85938243704724
HISAKI (SPRINT-A)       
1 39253U 13049A   26197.36692944  .00000087  00000+0  27073-4 0  9994
2 39253  29.7214  71.6551 0136986 253.3817 105.1673 13.55546789635387
CASSIOPE                
1 39265U 13055A   26197.59346776  .00017906 -53690-6  19156-3 0  9999
2 39265  80.9127  30.9358 0282661 323.1324  35.0759 15.27472333672152
STSAT-3                 
1 39422U 13066G   26197.60891948  .00001471  00000+0  11407-3 0  9994
2 39422  97.6193 167.0223 0008890 299.7242  60.3098 15.02889952688623
